[{"OBJECT_NAME":"STARLINK-36240","OBJECT_ID":"2025-298B","EPOCH":"2026-03-09T22:38:13.077024","MEAN_MOTION":14.9914115,"ECCENTRICITY":0.00027696,"INCLINATION":70.0016,"RA_OF_ASC_NODE":13.8861,"ARG_OF_PERICENTER":258.7048,"MEAN_ANOMALY":101.38,"EPHEMERIS_TYPE":0,"CLASSIFICATION_TYPE":"U","NORAD_CAT_ID":67076,"ELEMENT_SET_NO":999,"REV_AT_EPOCH":1325,"BSTAR":0.00087635231,"MEAN_MOTION_DOT":0.00010601,"MEAN_MOTION_DDOT":0},{"OBJECT_NAME":"CZ-4B DEB","OBJECT_ID":"1999-057CV","EPOCH":"2026-03-09T19:57:46.813248","MEAN_MOTION":14.85904834,"ECCENTRICITY":0.00580026,"INCLINATION":98.3828,"RA_OF_ASC_NODE":180.8293,"ARG_OF_PERICENTER":13.7764,"MEAN_ANOMALY":105.3903,"EPHEMERIS_TYPE":0,"CLASSIFICATION_TYPE":"U","NORAD_CAT_ID":26207,"ELEMENT_SET_NO":999,"REV_AT_EPOCH":36891,"BSTAR":0.0014962351,"MEAN_MOTION_DOT":0.00013405,"MEAN_MOTION_DDOT":0}]
